[{"OBJECT_NAME":"HERMES-3","OBJECT_ID":"2025-052BR","EPOCH":"2026-03-09T22:30:01.073952","MEAN_MOTION":15.30039786,"ECCENTRICITY":0.00079928,"INCLINATION":97.3987,"RA_OF_ASC_NODE":324.6131,"ARG_OF_PERICENTER":112.9583,"MEAN_ANOMALY":247.2502,"EPHEMERIS_TYPE":0,"CLASSIFICATION_TYPE":"U","NORAD_CAT_ID":63835,"ELEMENT_SET_NO":999,"REV_AT_EPOCH":5486,"BSTAR":0.0006995793,"MEAN_MOTION_DOT":0.00020316,"MEAN_MOTION_DDOT":0},{"OBJECT_NAME":"STARLINK-35793","OBJECT_ID":"2025-303S","EPOCH":"2026-03-09T02:04:09.740640","MEAN_MOTION":15.27621373,"ECCENTRICITY":0.00018151,"INCLINATION":43.0009,"RA_OF_ASC_NODE":314.0538,"ARG_OF_PERICENTER":262.6995,"MEAN_ANOMALY":97.365,"EPHEMERIS_TYPE":0,"CLASSIFICATION_TYPE":"U","NORAD_CAT_ID":67179,"ELEMENT_SET_NO":999,"REV_AT_EPOCH":1264,"BSTAR":0.0012006356,"MEAN_MOTION_DOT":0.00032967,"MEAN_MOTION_DDOT":0}]
